Street Address,City,State,Zip
4593 230TH ST.,MORRISON,MN,56475
3518 320TH STREET,CUSHING,MN,56443-4015
ELM STREET ,FLENSBURG,MN,56328
504 MINNESOTA AVE.,RANDALL,MN,56475
504 E MINNESOTA,RANDALL,MN,56475
501 PACIFIC STREET,RANDALL,MN,56475
535 PACIFIC STREET,RANDALL,MN,56475
602 DEGRAF STREET,SWANVILLE,MN,56382
602 DEGRAF STREET,SWANVILLE,MN,56382
31 1ST STREET,SWANVILLE,MN,56382-4592
213 DEGRAFF ST.,SWANVILLE,MN,56382-0295
602 DEGRAFF AVE.,SWANVILLE,MN,56382
602 DEGRAFF AVE.,SWANVILLE,MN,56382
602 DEGRAFF AVE.,SWANVILLE,MN,56382
602 DEGRAFF AVE.,SWANVILLE,MN,56382
405 MAIN STREET WEST,EAGLE BEND,MN,56446
106 FRANK ST. N,CLARISSA,MN,56440
106 UNITED STATES HIGHWAY 71 WEST,CLARISSA,MN,56440
106 FRANK STREET,CLARISSA,MN,56440
405 MAIN ST,EAGLE BEND,MN,56446
405 MAIN ST. W.,EAGLE BEND,MN,56446
108 MAIN STREET WEST,EAGLE BEND,MN,56446
108 MAIN STREET WEST,EAGLE BEND,MN,56446
127 MAIN STREET EAST,EAGLE BEND,MN,56446
620 PARK AVENUE NORTH,BROWERVILLE,MN,56438
620 PARK AVE N,BROWERVILLE,MN,56438
620 PARK AVE N,BROWERVILLE,MN,56438
620 PARK AVENUE NORTH,BROWERVILLE,MN,56438-0185
620 PARK AVENUE NORTH,BROWERVILLE,MN,56438
730 MAIN ST. N.,BROWERVILLE,MN,56438
653 NORTH MAIN STREET,BROWERVILLE,MN,56438
510 9TH ST. NE.,LONG PRAIRIE,MN,56347
510 NINTH ST. NE,LONG PRAIRIE,MN,56347
17509 CTY. RD. 24,BERTHA,MN,56437
310 CENTRAL AVE. P. O. BOX 8,BERTHA,MN,56437
310 CENTRAL AVE. S,BERTHA,MN,56437
310 CENTRAL AVE. S,BERTHA,MN,56437
310 CENTRAL AVE. S.,BERTHA,MN,56437
208 2ND AVENUE NORTHWEST,BERTHA,MN,56437
208 2ND AVENUE NORTHWEST,BERTHA,MN,56437
