Street Address,City,State,Zip
20837 COUNTY ROAD 1,EMILY,MN,56447-2000
22639 MAIN STREET ,DEERWOOD,MN,56444-6222
24945 MINNESOTA AVENUE ,CUYUNA,MN,56444-6227
29474 COUNTY ROAD 3,MERRIFIELD,MN,56465-4408
35458 BUTTERNUT POINT ROAD,PEQUOT LAKES,MN,56472-3643
37028 COUNTY ROAD 66,CROSSLAKE,MN,56442-2528
37028 COUNTY ROAD 66,CROSSLAKE,MN,56442-2528
4638 COUNTY ROAD 11,PEQUOT LAKES,MN,56472-3385
4638 COUNTY ROAD 11,PEQUOT LAKES,MN,56472-3385
8361 COUNTY ROAD 11,BREEZY POINT,MN,56472-3114
9229 COUNTY ROAD 1,PINE RIVER,MN,56474-2542
25636 MAIN STREET ,NISSWA,MN,56468
30805 OLSON ST ,PEQUOT LAKES,MN,56472
30805 OLSON ST ,PEQUOT LAKES,MN,56472
30805 OLSON ST ,PEQUOT LAKES,MN,56472
30805 OLSON ST ,PEQUOT LAKES,MN,56472
30805 OLSON ST. ,PEQUOT LAKES,MN,56472
36974 CTY. RD. 66,CROSSLAKE,MN,56442
39811 STATE HWY 6,EMILY,MN,56447
39811 STATE HWY. 6,EMILY,MN,56447
39954 LAKE STREET ,EMILY,MN,56447
40366 COUNTY ROAD 3,FIFTY LAKES,MN,56448
41536 BIRCHWOOD DR. ,EMILY,MN,56447
5442 CITY HALL STREET,NISSWA,MN,56468
5533 COUNTY ROAD 18,NISSWA,MN,56468
6535 COUNTY ROAD 11,PEQUOT LAKES,MN,56472
6539 COUNTY ROAD 11,BREEZY POINT,MN,56472