Street Address,City,State,Zip
1600 Burrstone Road,Utica,NY,13502
124 16th St. NE,Washington,DC,20002
3504 Connor Place, Frederick,MD,21704
41 Canterbury Road,Lynnfield,MA,1940
42 Billings Street,Sharon,MA,2067
"1691 Commonwealth Avenue, Apt. 7",Brighton,MA,2135
29 Hews Street,Cambridge,MA,2139
235 Washington St #2,Brookline,MA,2445
163 Coolidge St. #2,Brookline,MA,2446
1 Beacon Street,Arlington,MA,2474
764 Bloomfield Avenue,Montclair,NJ,7042
56 Overlook Rd,Montclair,NJ,7043
110 65th Street,West New York,NJ,7093
6009 JFK Blvd East,West New York,NJ,7093
332 N. Pleasant Ave.,Ridgewood,NJ,7450
125 Four Winds Drive,Middletown,NJ,7748
10 Enclosure Drive,Morganville,NJ,7751
9 Dale Ct,Cherry Hill,NJ,8003
260 Grisscom Court,Marlton,NJ,8053
251A S 8th Ave,Highland Park,NJ,8904
"380 Madison Avenue,12th Floor, M12077A",New York,NY,10017
"206 W 80th, Apt #3RW",New York,NY,10024
30 Rockefeller Plaza,New York,NY,10112
1326 Madison Ave,New York,NY,10128
296 Poillon Avenue,Staten Island,NY,10312
318 South Railroad Street,Staten Island,NY,10312
3 Giselle Court,Montebello,NY,10901
2761 East 64th Street,Brooklyn,NY,11234
522 Shore Road,Long Beach,NY,11561
17 Wallace Court,Rockville Centre,NY,11570
3 Stirrup Court,West Hills,NY,11743
162 Cold Spring Rd,Syosset,NY,11791
315 B Goode Street,Burnt Hills,NY,12027
6 Sprout Lake Camp (Rte. 82),Verbank,NY,12585
613 Trimble Blvd,Brookhaven,PA,19015
1050 Connecticut Ave NW,Washington,DC,20001
644 Lexington Place NE,Washington,DC,20002
729 4th Street NE,Washington,DC,20002
124 16th Street SE,Washington,DC,20003
1313 South Capitol Street SW,Washington,DC,20003
1527 Massachusetts Ave SE,Washington,DC,20003
1533 A St. SE,Washington,DC,20003
1622 Massachusetts Ave SE,Washington,DC,20003
201 16th Street SE,Washington,DC,20003
219 17th St SE,Washington,DC,20003
4107 18TH St NW,Washington,DC,20011
"811 Quincy Street, NW – Suite 211",Washington,DC,20011
3811 Legation Street NW,Washington,DC,20015
"4343 Harrison St NW, Apt #3",Washington,DC,20015
"4000 Wisconsin Ave NW, MS: 2H-4W/01",Washington,DC,20016
2349 Pitts  Place SE  apt 202,Washington,DC,20020
"2141 K Street, N.W., Suite 401",Washington,DC,20037
"2300 M Street, Suite 910",Washington,DC,20037
2440 M St NW,Washington,DC,20037
"800 Independence Ave SW, Ste 132 & 213",Washington,DC,20591
"10015 Edward Avenue",Bethesda,MD,20814
8 Eaglebrook Ct,Rockville,MD,20854
10 Bayridge Court,Gaithersburg,MD,20878
10211 Procter St,Silver Spring,MD,20901
10200 Duvawn Place,Silver Spring,MD,20902
8737 COLESVILLE ROAD STE 900,SILVER SPRING,MD,20910
32 Philadelphia Avenue,Takoma Park,MD,20912
11468 Old Frederick Rd,Marriottsville,MD,21104
1252 Damsel Road,Baltimore,MD,21221
3504 Connor Place,Frederick,MD,21704
1467 Sykesville Road,Sykesville,MD,21784
6074 Deer Ridge Trail,Springfield,VA,22150
1700 Abbey Oak Drive,Vienna,VA,22182
9824 Fosbak Drive,Vienna,VA,22182
4330 26th Street North,Arlington,VA,22207
4644 24th Street North,Arlington,VA,22207
3102 Edgehill Drive,Alexandria,VA,22302
"4660 Kenmore Avenue, Suite 500",Alexandria,VA,22304
5184 Brawner Pl,Alexandria,VA,22304
3115 Arundel avenue,Alexandria,Virginia,22306
7858 Southdown Road,Alexandria,VA,22308
3305 Sharon Chapel Road,Alexandria,VA,22310
5807 Merton Court #183,Alexandria,VA,22311
3624 Millington Rd,Free Union,VA,22940
1771 Thomfordson Ln,Ruckersville,VA,22968
1303 Grove Avenue,Richmond,VA,23220
1012 Anderson Drive,Williamston,SC,29697
312 Sunset Rd,West Palm Beach,FL,33401
8623-A Fenwick Creek Place,Louisville,KY,40220
22495 Coventry Woods Lane,Southfield,MI,48034
499 Dunston Road,Bloomfield Hills,MI,48304
5939 Dunmore Drive,West Bloomfield,MI,48322
13615 West Deer Park Drive,New Berlin,WI,53151
E989 Stratton Lake Rd ,Waupaca,WI,54981
2275 Witty Lane,Columbia Falls,MT,59912
20463 West Miller Road,Antioch,IL,60002
229 Neva Avenue,Glenview,IL,60025
1907 Sunnyside Avenue,Highland Park,IL,60035
517 Kresswood Dr,McHenry,IL,60050
1414 S Chestnut Drive,Mt. Prospect,IL,60056
310 N NORTHWEST HIGHWAY,Mt. Prospect,IL,60056
2827 Farmington Road,Northbrook,IL,60062
22720 North Apple Hill Lane,Lincolnshire,IL,60069
8342 Central Park,Skokie,IL,60076
8404 N. Central Park,Skokie,IL,60076
8707 Central Park,Skokie,IL,60076
8836 Kolmar,Skokie,IL,60076
9215 Kenneth,Skokie,IL,60076
203 Benton Lane,Bloomingdale,IL,60108
919 Ferdinand Ave,Forest Park,IL,60130
204 South Lodge Lane,Lombard,IL,60148
"1323 Maple Avenue, Apt 4NW",Evanston,IL,60201
817 Brown Avenue,Evanston,IL,60202
1236 55th Street,Downers Grove,IL,60515
5125 South Blodgett #319,Downers Grove,IL,60515
1634 W Beech Ave,Chicago,IL,60602
"25 E. Washington, Ste 1115",Chicago,IL,60602
1111 S Wabash Avenue,Chicago,IL,60605
1437-J South Plymouth Court,Chicago,IL,60605
"One North Wacker, Suite 4600",Chicago,IL,60606
"910 W Madison, #509",Chicago,IL,60607
"70 W Huron St, Apt #1404",Chicago,IL,60610
"25 E Superior St, Apt 1406",Chicago,IL,60611
"680 North Lake Shore Drive, Suite 123",Chicago,IL,60611
3600 LSD #1002,Chicago,IL,60613
4010 N Clark Unit B,Chicago,IL,60613
"1624 N Burling, Unit A",Chicago,IL,60614
1804 S Calumet Ave,Chicago,IL,60616
8514 S Summit Avenue,Chicago,IL,60620
4625 N. Dover #1,Chicago,IL,60640
6550 N. Central Park Ave.,Lincolnwood,IL,60645
1900 N Hoyne,Chicago,IL,60647
3252 N Kenmore Ave #206,Chicago,IL,60657
700 W. Barry Ave. Unit 1W,Chicago,IL,60657
6321 N. Sacramento Ave Apt 2w,Chicago,IL,60659
4950 Central Street #102,Kansas City,MO,64112
3808 Stockport Drive,Plano,TX,75025
"165 North Old Orchard Lane, #1117",Louisvale,TX,75067
422 Wolf Run,Bartonville,TX,75226
1808 Hillcrest Avenue,Salt Lake City,UT,84106
3434 East June Circle,Mesa,AZ,85213
18235 N 49th Place,Scottsdale,AZ,85254
14041 Edgeworth Drive,Fountain Hills,AZ,85268
"930 Figueroa Terrace, Apt 445",Los Angeles,CA,90012
635 Carcassonne Road,Los Angeles,CA,90077
124 The Strand,Hermosa Beach,CA,90254
457 Twenty-eighth Street,Manhattan Beach,CA,90266
641 S. Irena Ave,Redondo Beach,CA,90277
3325 Caminito Vasto,La Jolla,CA,92037
7802 Burns Ct,El Cerrito,CA,94530
4914 Paseo Olivos,San Jose,CA,95130
PO Box 502,Kilauea,HI,96754
815 171st Place NE,Bellevue,WA,98008
17906 NE 154th Street,Woodinville,WA,98072
841 South Meyers Street,Tacoma,WA,98465
102 SE Gate Drive,Cherry Hill,NJ,08003-2636
10 Colonial Drive,East Brunswick,NJ,08816-2734
750 Columbus Ave | Apt 2G,New York,NY,10025-6475
955 Bruce Drive,Wantagh,NY,11793-1115
"1145 19th Street. NW, Suite 410",Washington,DC,20036-3716
909 Crestwood Drive,Alexandria,VA,22302-2403
5900 Richmond Hwy,Alexandria,VA,22303-1805
469 Cambridge Drive,GRAYSLAKE,IL,60030-3453
206 North Main Street,Mt. Prospect,IL,60056-2411
1 Pine Cone Lane,Sleepy Hollow,IL,60118-1711
24W737 Argyle Avenue,Roselle,IL,60172-3314
"737 North Michigan Avenue, #950",Chicago,IL,60611-6659
"1835 W. Oakdale, Unit i",Chicago,IL,60657-4055
"3150 N Lake Shore Drive, #5D",Chicago,IL,60657-4803
2009 BREAKER LN,FLOWER MOUND,TX,75022-5482
19921 Turnberry Drive,Tarzana,CA,91356-5634
1121 G St NE,Washington,DC,20002
"1255 S Michigan, #2607",Chicago,IL,60605
1353 South Carolina Ave SE,Washington,DC,20003
1851 Mintwood Place NW,Washington,DC,20009
2020 Lincoln Park West 4J,Chicago,IL,606014
228 14th St SE,Washington,DC,20003
2508 Ross St.,Alexandria,VA,22306
3038 Ellenwood Drive,Fairfax,VA,22031
326 14th pl. NE,Washington,DC,20002
831 4th Street NE,Washington,DC,20002
9414 Arnon Chapel Road,Great Falls,VA,22066
23 S East St,Dakota,IL,61018
1000 23rd Ave S,Fargo,ND,58103
500 23rd Ave S,Grand Forks,ND,58201
750 23rd Ave SW,Washburn,ND,58577
1024 23rd Ave SE,Tuttle,ND,58488
5800 23rd Ave SE,Kintyre,ND,58549
82 23rd Ave SW,Belfield,ND,58622
2 Park Avenue,New York,NY,10016
2 Jericho Plaza,Jericho,NY,11753
5089 Old Tavern Road,The Plains,VA,20198
39 E Reno,Las Vegas,NV,89109
7500 Smoke Ranch Road,Las Vegas,NV,89128
9876 Antelope Canyon Avenue,Las Vegas,NV,89147
10 Old Plum Highway,La Grange,TX,78945
